start=new Date('2022-06-17T00:00:00.000Z').valueOf();
sats=[{"EPOCH":"2022-06-15T11:05:29.848128","PERIOD":"95.593","BSTAR":"-0.00017647000000","COUNTRY_CODE":"US","APOAPSIS":"548.176","FILE":"3496794","MEAN_MOTION":"15.06389053","MEAN_MOTION_DDOT":"0.0000000000000","ECCENTRICITY":"0.00013410","TLE_LINE2":"2 45085  53.0549 246.3800 0001341  65.0308 295.0820 15.06389053131555","EPHEMERIS_TYPE":"0","NORAD_CAT_ID":"45085","MEAN_ANOMALY":"295.0820","ARG_OF_PERICENTER":"65.0308","MEAN_ELEMENT_THEORY":"SGP4","PERIAPSIS":"546.318","OBJECT_ID":"2020-006AT","GP_ID":"206204947","REF_FRAME":"TEME","OBJECT_TYPE":"PAYLOAD","MEAN_MOTION_DOT":"-0.00002908","REV_AT_EPOCH":"13155","INCLINATION":"53.0549","RA_OF_ASC_NODE":"246.3800","SITE":"AFETR","RCS_SIZE":"LARGE","LAUNCH_DATE":"2020-01-29","TIME_SYSTEM":"UTC","TLE_LINE1":"1 45085U 20006AT  22166.46215102 -.00002908  00000-0 -17647-3 0  9997","DECAY_DATE":null,"ELEMENT_SET_NO":"999","SEMIMAJOR_AXIS":"6925.382","CENTER_NAME":"EARTH","OBJECT_NAME":"STARLINK-1179","CLASSIFICATION_TYPE":"U"},{"CENTER_NAME":"EARTH","SEMIMAJOR_AXIS":"6897.986","CLASSIFICATION_TYPE":"U","OBJECT_NAME":"STARLINK-1181","TLE_LINE1":"1 45086U 20006AU  22166.92184606  .00029693  00000-0  15647-2 0  9998","LAUNCH_DATE":"2020-01-29","TIME_SYSTEM":"UTC","DECAY_DATE":null,"ELEMENT_SET_NO":"999","SITE":"AFETR","RCS_SIZE":"LARGE","MEAN_MOTION_DOT":"0.00029693","REV_AT_EPOCH":"13164","RA_OF_ASC_NODE":"234.3260","INCLINATION":"52.9977","MEAN_ELEMENT_THEORY":"SGP4","MEAN_ANOMALY":"345.4659","ARG_OF_PERICENTER":"14.6378","EPHEMERIS_TYPE":"0","NORAD_CAT_ID":"45086","REF_FRAME":"TEME","OBJECT_TYPE":"PAYLOAD","PERIAPSIS":"518.771","OBJECT_ID":"2020-006AU","GP_ID":"206286136","ECCENTRICITY":"0.00015660","MEAN_MOTION_DDOT":"0.0000000000000","TLE_LINE2":"2 45086  52.9977 234.3260 0001566  14.6378 345.4659 15.15372110131648","MEAN_MOTION":"15.15372110","BSTAR":"0.00156470000000","EPOCH":"2022-06-15T22:07:27.499584","PERIOD":"95.026","COUNTRY_CODE":"US","FILE":"3497002","APOAPSIS":"520.931"},{"OBJECT_ID":"2020-006AV","PERIAPSIS":"546.259","GP_ID":"206286884","REF_FRAME":"TEME","OBJECT_TYPE":"PAYLOAD","EPHEMERIS_TYPE":"0","NORAD_CAT_ID":"45087","MEAN_ANOMALY":"278.6979","MEAN_ELEMENT_THEORY":"SGP4","ARG_OF_PERICENTER":"81.4167","TLE_LINE2":"2 45087  53.0552 244.3597 0001390  81.4167 278.6979 15.06397330131628","MEAN_MOTION_DDOT":"0.0000000000000","ECCENTRICITY":"0.00013900","MEAN_MOTION":"15.06397330","COUNTRY_CODE":"US","FILE":"3497002","APOAPSIS":"548.184","EPOCH":"2022-06-15T21:53:01.791456","PERIOD":"95.592","BSTAR":"-0.00002620700000","OBJECT_NAME":"STARLINK-1185","CLASSIFICATION_TYPE":"U","SEMIMAJOR_AXIS":"6925.357","CENTER_NAME":"EARTH","DECAY_DATE":null,"ELEMENT_SET_NO":"999","TIME_SYSTEM":"UTC","LAUNCH_DATE":"2020-01-29","TLE_LINE1":"1 45087U 20006AV  22166.91182629 -.00000672  00000-0 -26207-4 0  9995","RCS_SIZE":"LARGE","SITE":"AFETR","INCLINATION":"53.0552","RA_OF_ASC_NODE":"244.3597","REV_AT_EPOCH":"13162","MEAN_MOTION_DOT":"-0.00000672"},{"TLE_LINE1":"1 45088U 20006AW  22166.93393078  .00000265  00000-0  36672-4 0  9993","TIME_SYSTEM":"UTC","LAUNCH_DATE":"2020-01-29","ELEMENT_SET_NO":"999","DECAY_DATE":null,"CENTER_NAME":"EARTH","SEMIMAJOR_AXIS":"6925.341","CLASSIFICATION_TYPE":"U","OBJECT_NAME":"STARLINK-1183","MEAN_MOTION_DOT":"0.00000265","REV_AT_EPOCH":"13162","RA_OF_ASC_NODE":"244.2652","INCLINATION":"53.0532","SITE":"AFETR","RCS_SIZE":"LARGE","ECCENTRICITY":"0.00015210","MEAN_MOTION_DDOT":"0.0000000000000","TLE_LINE2":"2 45088  53.0532 244.2652 0001521  69.4628 290.6525 15.06402585131622","MEAN_ANOMALY":"290.6525","MEAN_ELEMENT_THEORY":"SGP4","ARG_OF_PERICENTER":"69.4628","NORAD_CAT_ID":"45088","EPHEMERIS_TYPE":"0","OBJECT_TYPE":"PAYLOAD","REF_FRAME":"TEME","GP_ID":"206285639","PERIAPSIS":"546.152","OBJECT_ID":"2020-006AW","BSTAR":"0.00003667200000","PERIOD":"95.592","EPOCH":"2022-06-15T22:24:51.619392","APOAPSIS":"548.259","FILE":"3497002","COUNTRY_CODE":"US","MEAN_MOTION":"15.06402585"},{"ARG_OF_PERICENTER":"62.0975","MEAN_ANOMALY":"298.0171","MEAN_ELEMENT_THEORY":"SGP4","NORAD_CAT_ID":"45089","EPHEMERIS_TYPE":"0","OBJECT_TYPE":"PAYLOAD","REF_FRAME":"TEME","GP_ID":"206285388","OBJECT_ID":"2020-006AX","PERIAPSIS":"546.146","ECCENTRICITY":"0.00015570","MEAN_MOTION_DDOT":"0.0000000000000","TLE_LINE2":"2 45089  53.0538 244.0255 0001557  62.0975 298.0171 15.06396361131644","MEAN_MOTION":"15.06396361","BSTAR":"0.00001000800000","PERIOD":"95.592","EPOCH":"2022-06-16T00:11:03.442272","FILE":"3497002","APOAPSIS":"548.303","COUNTRY_CODE":"US","CENTER_NAME":"EARTH","SEMIMAJOR_AXIS":"6925.360","CLASSIFICATION_TYPE":"U","OBJECT_NAME":"STARLINK-1136","TLE_LINE1":"1 45089U 20006AX  22167.00767873 -.00000132  00000-0  10008-4 0  9990","TIME_SYSTEM":"UTC","LAUNCH_DATE":"2020-01-29","ELEMENT_SET_NO":"999","DECAY_DATE":null,"SITE":"AFETR","RCS_SIZE":"LARGE","REV_AT_EPOCH":"13164","MEAN_MOTION_DOT":"-0.00000132","RA_OF_ASC_NODE":"244.0255","INCLINATION":"53.0538"},{"REV_AT_EPOCH":"13155","MEAN_MOTION_DOT":"-0.00001123","INCLINATION":"53.0548","RA_OF_ASC_NODE":"246.4153","SITE":"AFETR","RCS_SIZE":"LARGE","TIME_SYSTEM":"UTC","LAUNCH_DATE":"2020-01-29","TLE_LINE1":"1 45090U 20006AY  22166.45383076 -.00001123  00000-0 -56516-4 0  9995","DECAY_DATE":null,"ELEMENT_SET_NO":"999","SEMIMAJOR_AXIS":"6925.387","CENTER_NAME":"EARTH","OBJECT_NAME":"STARLINK-1176","CLASSIFICATION_TYPE":"U","EPOCH":"2022-06-15T10:53:30.977664","PERIOD":"95.593","BSTAR":"-0.00005651600000","COUNTRY_CODE":"US","FILE":"3496794","APOAPSIS":"548.223","MEAN_MOTION":"15.06387603","MEAN_MOTION_DDOT":"0.0000000000000","ECCENTRICITY":"0.00014030","TLE_LINE2":"2 45090  53.0548 246.4153 0001403  81.5103 278.6045 15.06387603131552","EPHEMERIS_TYPE":"0","NORAD_CAT_ID":"45090","MEAN_ELEMENT_THEORY":"SGP4","MEAN_ANOMALY":"278.6045","ARG_OF_PERICENTER":"81.5103","PERIAPSIS":"546.280","OBJECT_ID":"2020-006AY","GP_ID":"206205195","REF_FRAME":"TEME","OBJECT_TYPE":"PAYLOAD"},{"RCS_SIZE":"LARGE","SITE":"AFETR","RA_OF_ASC_NODE":"246.2491","INCLINATION":"53.0548","REV_AT_EPOCH":"13155","MEAN_MOTION_DOT":"-0.00001447","CLASSIFICATION_TYPE":"U","OBJECT_NAME":"STARLINK-1137","CENTER_NAME":"EARTH","SEMIMAJOR_AXIS":"6925.360","DECAY_DATE":null,"ELEMENT_SET_NO":"999","TLE_LINE1":"1 45092U 20006BA  22166.49531226 -.00001447  00000-0 -78286-4 0  9990","TIME_SYSTEM":"UTC","LAUNCH_DATE":"2020-01-29","MEAN_MOTION":"15.06396416","COUNTRY_CODE":"US","FILE":"3496794","APOAPSIS":"548.200","BSTAR":"-0.00007828600000","EPOCH":"2022-06-15T11:53:14.979264","PERIOD":"95.592","REF_FRAME":"TEME","OBJECT_TYPE":"PAYLOAD","PERIAPSIS":"546.249","OBJECT_ID":"2020-006BA","GP_ID":"206205940","ARG_OF_PERICENTER":"66.1800","MEAN_ANOMALY":"293.9337","MEAN_ELEMENT_THEORY":"SGP4","EPHEMERIS_TYPE":"0","NORAD_CAT_ID":"45092","TLE_LINE2":"2 45092  53.0548 246.2491 0001408  66.1800 293.9337 15.06396416131551","ECCENTRICITY":"0.00014080","MEAN_MOTION_DDOT":"0.0000000000000"},{"NORAD_CAT_ID":"45093","EPHEMERIS_TYPE":"0","MEAN_ANOMALY":"280.2175","ARG_OF_PERICENTER":"79.8978","MEAN_ELEMENT_THEORY":"SGP4","GP_ID":"206205687","OBJECT_ID":"2020-006BB","PERIAPSIS":"546.248","OBJECT_TYPE":"PAYLOAD","REF_FRAME":"TEME","MEAN_MOTION_DDOT":"0.0000000000000","ECCENTRICITY":"0.00014510","TLE_LINE2":"2 45093  53.0544 246.2600 0001451  79.8978 280.2175 15.06387089131550","MEAN_MOTION":"15.06387089","PERIOD":"95.593","EPOCH":"2022-06-15T11:47:57.081696","BSTAR":"-0.00015291000000","APOAPSIS":"548.258","FILE":"3496794","COUNTRY_CODE":"US","SEMIMAJOR_AXIS":"6925.388","CENTER_NAME":"EARTH","OBJECT_NAME":"STARLINK-1142","CLASSIFICATION_TYPE":"U","LAUNCH_DATE":"2020-01-29","TIME_SYSTEM":"UTC","TLE_LINE1":"1 45093U 20006BB  22166.49163289 -.00002557  00000-0 -15291-3 0  9990","ELEMENT_SET_NO":"999","DECAY_DATE":null,"SITE":"AFETR","RCS_SIZE":"LARGE","MEAN_MOTION_DOT":"-0.00002557","REV_AT_EPOCH":"13155","INCLINATION":"53.0544","RA_OF_ASC_NODE":"246.2600"},{"OBJECT_NAME":"STARLINK-1146","CLASSIFICATION_TYPE":"U","SEMIMAJOR_AXIS":"6925.380","CENTER_NAME":"EARTH","DECAY_DATE":null,"ELEMENT_SET_NO":"999","TIME_SYSTEM":"UTC","LAUNCH_DATE":"2020-01-29","TLE_LINE1":"1 45094U 20006BC  22166.50542691 -.00000619  00000-0 -22696-4 0  9996","RCS_SIZE":"LARGE","SITE":"AFETR","INCLINATION":"53.0547","RA_OF_ASC_NODE":"246.1822","REV_AT_EPOCH":"13156","MEAN_MOTION_DOT":"-0.00000619","OBJECT_ID":"2020-006BC","PERIAPSIS":"546.212","GP_ID":"206204948","REF_FRAME":"TEME","OBJECT_TYPE":"PAYLOAD","EPHEMERIS_TYPE":"0","NORAD_CAT_ID":"45094","MEAN_ANOMALY":"284.1462","ARG_OF_PERICENTER":"75.9693","MEAN_ELEMENT_THEORY":"SGP4","TLE_LINE2":"2 45094  53.0547 246.1822 0001491  75.9693 284.1462 15.06389903131564","MEAN_MOTION_DDOT":"0.0000000000000","ECCENTRICITY":"0.00014910","MEAN_MOTION":"15.06389903","COUNTRY_CODE":"US","FILE":"3496794","APOAPSIS":"548.277","EPOCH":"2022-06-15T12:07:48.885024","PERIOD":"95.593","BSTAR":"-0.00002269600000"},{"SEMIMAJOR_AXIS":"6925.386","CENTER_NAME":"EARTH","OBJECT_NAME":"STARLINK-1147","CLASSIFICATION_TYPE":"U","TIME_SYSTEM":"UTC","LAUNCH_DATE":"2020-01-29","TLE_LINE1":"1 45095U 20006BD  22166.90720569 -.00004143  00000-0 -25950-3 0  9994","DECAY_DATE":null,"ELEMENT_SET_NO":"999","SITE":"AFETR","RCS_SIZE":"LARGE","REV_AT_EPOCH":"13162","MEAN_MOTION_DOT":"-0.00004143","INCLINATION":"53.0529","RA_OF_ASC_NODE":"244.3736","EPHEMERIS_TYPE":"0","NORAD_CAT_ID":"45095","MEAN_ANOMALY":"303.6517","ARG_OF_PERICENTER":"56.4619","MEAN_ELEMENT_THEORY":"SGP4","PERIAPSIS":"546.181","OBJECT_ID":"2020-006BD","GP_ID":"206286137","REF_FRAME":"TEME","OBJECT_TYPE":"PAYLOAD","MEAN_MOTION_DDOT":"0.0000000000000","ECCENTRICITY":"0.00015440","TLE_LINE2":"2 45095  53.0529 244.3736 0001544  56.4619 303.6517 15.06387931131624","MEAN_MOTION":"15.06387931","EPOCH":"2022-06-15T21:46:22.571616","PERIOD":"95.593","BSTAR":"-0.00025950000000","COUNTRY_CODE":"US","APOAPSIS":"548.320","FILE":"3497002"}];
